IXPE                    
1 49954U 21121A   24218.25001157  .00010523  00000+0  77955-3 0  9992
2 49954   0.2321  29.1910 0009610 290.3462 194.1999 14.98870832145276
